[{"OBJECT_NAME":"IRIDIUM 168","OBJECT_ID":"2019-002C","EPOCH":"2026-03-09T22:03:03.105216","MEAN_MOTION":14.34216679,"ECCENTRICITY":0.00021737,"INCLINATION":86.3975,"RA_OF_ASC_NODE":35.1435,"ARG_OF_PERICENTER":86.4602,"MEAN_ANOMALY":273.6843,"EPHEMERIS_TYPE":0,"CLASSIFICATION_TYPE":"U","NORAD_CAT_ID":43924,"ELEMENT_SET_NO":999,"REV_AT_EPOCH":37474,"BSTAR":0.00012475836,"MEAN_MOTION_DOT":3.69e-6,"MEAN_MOTION_DDOT":0},{"OBJECT_NAME":"FENGYUN 1C DEB","OBJECT_ID":"1999-025AGM","EPOCH":"2026-03-08T18:34:27.202080","MEAN_MOTION":14.39133617,"ECCENTRICITY":0.00265788,"INCLINATION":98.9202,"RA_OF_ASC_NODE":155.0407,"ARG_OF_PERICENTER":114.3564,"MEAN_ANOMALY":11.2752,"EPHEMERIS_TYPE":0,"CLASSIFICATION_TYPE":"U","NORAD_CAT_ID":30474,"ELEMENT_SET_NO":999,"REV_AT_EPOCH":98630,"BSTAR":0.0028647381,"MEAN_MOTION_DOT":8.866e-5,"MEAN_MOTION_DDOT":0}]
